{
  "links" : {
    "next" : "https://api.nasa.gov/neo/rest/v1/feed?start_date=2010-02-09&end_date=2010-02-09&detailed=true&api_key=t0TVs3DtDT2H8Oy2Zy8m2eVrNsAVKAexjcZXUckd",
    "prev" : "https://api.nasa.gov/neo/rest/v1/feed?start_date=2010-02-07&end_date=2010-02-07&detailed=true&api_key=t0TVs3DtDT2H8Oy2Zy8m2eVrNsAVKAexjcZXUckd",
    "self" : "https://api.nasa.gov/neo/rest/v1/feed?start_date=2010-02-08&end_date=2010-02-08&detailed=true&api_key=t0TVs3DtDT2H8Oy2Zy8m2eVrNsAVKAexjcZXUckd"
  },
  "element_count" : 5,
  "near_earth_objects" : {
    "2010-02-08" : [ {
      "links" : {
        "self" : "https://api.nasa.gov/neo/rest/v1/neo/3150191?api_key=t0TVs3DtDT2H8Oy2Zy8m2eVrNsAVKAexjcZXUckd"
      },
      "neo_reference_id" : "3150191",
      "name" : "(2003 DW10)",
      "nasa_jpl_url" : "http://ssd.jpl.nasa.gov/sbdb.cgi?sstr=3150191",
      "absolute_magnitude_h" : 26.1,
      "estimated_diameter" : {
        "kilometers" : {
          "estimated_diameter_min" : 0.0160160338,
          "estimated_diameter_max" : 0.0358129403
        },
        "meters" : {
          "estimated_diameter_min" : 16.0160337979,
          "estimated_diameter_max" : 35.8129403019
        },
        "miles" : {
          "estimated_diameter_min" : 0.0099518989,
          "estimated_diameter_max" : 0.0222531225
        },
        "feet" : {
          "estimated_diameter_min" : 52.5460443254,
          "estimated_diameter_max" : 117.4965270602
        }
      },
      "is_potentially_hazardous_asteroid" : false,
      "close_approach_data" : [ {
        "close_approach_date" : "2010-02-08",
        "epoch_date_close_approach" : 1265616000000,
        "relative_velocity" : {
          "kilometers_per_second" : "15.6690035423",
          "kilometers_per_hour" : "56408.412752262",
          "miles_per_hour" : "35049.9940237597"
        },
        "miss_distance" : {
          "astronomical" : "0.2584174588",
          "lunar" : "100.5243911743",
          "kilometers" : "38658700",
          "miles" : "24021404"
        },
        "orbiting_body" : "Earth"
      } ],
      "orbital_data" : {
        "orbit_id" : "13",
        "orbit_determination_date" : "2017-04-06 09:14:20",
        "orbit_uncertainty" : "5",
        "minimum_orbit_intersection" : ".000178388",
        "jupiter_tisserand_invariant" : "4.581",
        "epoch_osculation" : "2458000.5",
        "eccentricity" : ".3608395420763826",
        "semi_major_axis" : "1.446113232645548",
        "inclination" : "2.19444062722522",
        "ascending_node_longitude" : "342.1761524459237",
        "orbital_period" : "635.187403705113",
        "perihelion_distance" : ".9242983959871311",
        "perihelion_argument" : "221.0677479253228",
        "aphelion_distance" : "1.967928069303965",
        "perihelion_time" : "2457817.475955692326",
        "mean_anomaly" : "103.7310493980632",
        "mean_motion" : ".5667618688596204",
        "equinox" : "J2000"
      }
    }, {
      "links" : {
        "self" : "https://api.nasa.gov/neo/rest/v1/neo/3511514?api_key=t0TVs3DtDT2H8Oy2Zy8m2eVrNsAVKAexjcZXUckd"
      },
      "neo_reference_id" : "3511514",
      "name" : "(2010 EF21)",
      "nasa_jpl_url" : "http://ssd.jpl.nasa.gov/sbdb.cgi?sstr=3511514",
      "absolute_magnitude_h" : 18.4,
      "estimated_diameter" : {
        "kilometers" : {
          "estimated_diameter_min" : 0.5553349116,
          "estimated_diameter_max" : 1.2417666126
        },
        "meters" : {
          "estimated_diameter_min" : 555.334911581,
          "estimated_diameter_max" : 1241.766612574
        },
        "miles" : {
          "estimated_diameter_min" : 0.3450690093,
          "estimated_diameter_max" : 0.7715977618
        },
        "feet" : {
          "estimated_diameter_min" : 1821.9649913114,
          "estimated_diameter_max" : 4074.0375731972
        }
      },
      "is_potentially_hazardous_asteroid" : false,
      "close_approach_data" : [ {
        "close_approach_date" : "2010-02-08",
        "epoch_date_close_approach" : 1265616000000,
        "relative_velocity" : {
          "kilometers_per_second" : "16.0545709497",
          "kilometers_per_hour" : "57796.4554188001",
          "miles_per_hour" : "35912.4697573094"
        },
        "miss_distance" : {
          "astronomical" : "0.1758004444",
          "lunar" : "68.3863754272",
          "kilometers" : "26299372",
          "miles" : "16341672"
        },
        "orbiting_body" : "Earth"
      } ],
      "orbital_data" : {
        "orbit_id" : "25",
        "orbit_determination_date" : "2017-04-06 08:58:13",
        "orbit_uncertainty" : "1",
        "minimum_orbit_intersection" : ".106241",
        "jupiter_tisserand_invariant" : "3.077",
        "epoch_osculation" : "2458000.5",
        "eccentricity" : ".7195129230815419",
        "semi_major_axis" : "2.426963271733941",
        "inclination" : "10.29798899871267",
        "ascending_node_longitude" : "300.6131574604673",
        "orbital_period" : "1380.998582794581",
        "perihelion_distance" : ".6807318338771106",
        "perihelion_argument" : "143.7625677987294",
        "aphelion_distance" : "4.173194709590771",
        "perihelion_time" : "2457964.650195706477",
        "mean_anomaly" : "9.34536045616492",
        "mean_motion" : ".2606809336990817",
        "equinox" : "J2000"
      }
    }, {
      "links" : {
        "self" : "https://api.nasa.gov/neo/rest/v1/neo/3709715?api_key=t0TVs3DtDT2H8Oy2Zy8m2eVrNsAVKAexjcZXUckd"
      },
      "neo_reference_id" : "3709715",
      "name" : "(2015 CL)",
      "nasa_jpl_url" : "http://ssd.jpl.nasa.gov/sbdb.cgi?sstr=3709715",
      "absolute_magnitude_h" : 25.4,
      "estimated_diameter" : {
        "kilometers" : {
          "estimated_diameter_min" : 0.022108281,
          "estimated_diameter_max" : 0.0494356193
        },
        "meters" : {
          "estimated_diameter_min" : 22.1082810359,
          "estimated_diameter_max" : 49.435619262
        },
        "miles" : {
          "estimated_diameter_min" : 0.0137374447,
          "estimated_diameter_max" : 0.0307178602
        },
        "feet" : {
          "estimated_diameter_min" : 72.5337327539,
          "estimated_diameter_max" : 162.1903570994
        }
      },
      "is_potentially_hazardous_asteroid" : false,
      "close_approach_data" : [ {
        "close_approach_date" : "2010-02-08",
        "epoch_date_close_approach" : 1265616000000,
        "relative_velocity" : {
          "kilometers_per_second" : "14.7350171052",
          "kilometers_per_hour" : "53046.0615785418",
          "miles_per_hour" : "32960.7597625112"
        },
        "miss_distance" : {
          "astronomical" : "0.0046505892",
          "lunar" : "1.8090791702",
          "kilometers" : "695718.25",
          "miles" : "432299.25"
        },
        "orbiting_body" : "Earth"
      } ],
      "orbital_data" : {
        "orbit_id" : "4",
        "orbit_determination_date" : "2017-04-06 08:35:49",
        "orbit_uncertainty" : "7",
        "minimum_orbit_intersection" : "9.30055E-5",
        "jupiter_tisserand_invariant" : "7.726",
        "epoch_osculation" : "2458000.5",
        "eccentricity" : ".5649318932639468",
        "semi_major_axis" : ".7321056673857965",
        "inclination" : "2.982160035704974",
        "ascending_node_longitude" : "320.1096481393351",
        "orbital_period" : "228.8016121087175",
        "perihelion_distance" : ".3185158266402732",
        "perihelion_argument" : "330.8804044592547",
        "aphelion_distance" : "1.14569550813132",
        "perihelion_time" : "2458043.755673658893",
        "mean_anomaly" : "291.9408531535941",
        "mean_motion" : "1.573415487251646",
        "equinox" : "J2000"
      }
    } ]
  }
}